[
    {
        "Altitude(m)": 617710.639268318,
        "Argument of Periapsis(deg)": 0.0,
        "Eccentricity": 0.0,
        "Inclination(deg)": 60.0,
        "Latitude(deg)": -41.102659079230165,
        "Longitude(deg)": 49.96672690377942,
        "Mean Anomaly(deg)": -49.09089999999994,
        "RAAN(deg)": 180.0,
        "Satellite Name": "Test1 811",
        "Satellite Number": 811,
        "Semi-Major Axis(m)": 6980739.136638005,
        "Time(s)": 0
    },
    {
        "Altitude(m)": 617517.9374050894,
        "Argument of Periapsis(deg)": 0.00010418945913296404,
        "Eccentricity": 0.0,
        "Inclination(deg)": 60.0,
        "Latitude(deg)": -40.63686506393752,
        "Longitude(deg)": 50.463518920563914,
        "Mean Anomaly(deg)": -48.470793854538094,
        "RAAN(deg)": 179.99957995086024,
        "Satellite Name": "Test1 811",
        "Satellite Number": 811,
        "Semi-Major Axis(m)": 6980739.136638005,
        "Time(s)": 10
    }
]